{
  "type": "FeatureCollection",
  "features": [
    {
      "type": "Feature",
      "properties": {
        "norad_id": 41877,
        "name": "RESOURCESAT-2A",
        "group": "resource",
        "lat": 1.5928125970693763,
        "lon": -126.17447252963005,
        "alt_km": 822.7221643059911,
        "timestamp": "2025-12-09T16:56:36.237609+00:00",
        "meta_object_name": "RESOURCESAT-2A",
        "meta_object_id": "2016-074A",
        "meta_epoch": "2025-12-09T11:02:23.182656",
        "meta_mean_motion": 14.21598647,
        "meta_eccentricity": 0.0001134,
        "meta_inclination": 98.7757,
        "meta_ra_of_asc_node": 53.3349,
        "meta_arg_of_pericenter": 273.7455,
        "meta_mean_anomaly": 86.3592,
        "meta_ephemeris_type": 0,
        "meta_classification_type": "U",
        "meta_norad_cat_id": 41877,
        "meta_element_set_no": 999,
        "meta_rev_at_epoch": 46734,
        "meta_bstar": 0.00031373,
        "meta_mean_motion_dot": 6.43e-06,
        "meta_mean_motion_ddot": 0,
        "tle_line1": "1 41877U 16074A   25343.45999054  .00000643  00000+0  31373-3 0  9999",
        "tle_line2": "2 41877  98.7757  53.3349 0001134 273.7455  86.3592 14.21598647467345"
      },
      "geometry": {
        "type": "Point",
        "coordinates": [
          -126.17447252963005,
          1.5928125970693763
        ]
      }
    },
    {
      "type": "Feature",
      "properties": {
        "norad_id": 41948,
        "name": "CARTOSAT-2D",
        "group": "resource",
        "lat": -20.095368174278285,
        "lon": -141.49062985644358,
        "alt_km": 510.9143107043237,
        "timestamp": "2025-12-09T16:56:36.237619+00:00",
        "meta_object_name": "CARTOSAT-2D",
        "meta_object_id": "2017-008A",
        "meta_epoch": "2025-12-09T11:19:22.315584",
        "meta_mean_motion": 15.19207791,
        "meta_eccentricity": 0.0004318,
        "meta_inclination": 97.4387,
        "meta_ra_of_asc_node": 41.0186,
        "meta_arg_of_pericenter": 171.4843,
        "meta_mean_anomaly": 188.6465,
        "meta_ephemeris_type": 0,
        "meta_classification_type": "U",
        "meta_norad_cat_id": 41948,
        "meta_element_set_no": 999,
        "meta_rev_at_epoch": 48877,
        "meta_bstar": 0.00039736,
        "meta_mean_motion_dot": 8.302e-05,
        "meta_mean_motion_ddot": 0,
        "tle_line1": "1 41948U 17008A   25343.47178606  .00008302  00000+0  39736-3 0  9991",
        "tle_line2": "2 41948  97.4387  41.0186 0004318 171.4843 188.6465 15.19207791488774"
      },
      "geometry": {
        "type": "Point",
        "coordinates": [
          -141.49062985644358,
          -20.095368174278285
        ]
      }
    },
    {
      "type": "Feature",
      "properties": {
        "norad_id": 42063,
        "name": "SENTINEL-2B",
        "group": "resource",
        "lat": 45.63022006035956,
        "lon": 47.32498127441554,
        "alt_km": 784.4635702133301,
        "timestamp": "2025-12-09T16:56:36.237630+00:00",
        "meta_object_name": "SENTINEL-2B",
        "meta_object_id": "2017-013A",
        "meta_epoch": "2025-12-09T11:41:34.086912",
        "meta_mean_motion": 14.30814232,
        "meta_eccentricity": 0.000114,
        "meta_inclination": 98.5717,
        "meta_ra_of_asc_node": 55.9787,
        "meta_arg_of_pericenter": 93.2953,
        "meta_mean_anomaly": 266.836,
        "meta_ephemeris_type": 0,
        "meta_classification_type": "U",
        "meta_norad_cat_id": 42063,
        "meta_element_set_no": 999,
        "meta_rev_at_epoch": 45751,
        "meta_bstar": 0.00014328,
        "meta_mean_motion_dot": 3.32e-06,
        "meta_mean_motion_ddot": 0,
        "tle_line1": "1 42063U 17013A   25343.48720008  .00000332  00000+0  14328-3 0  9991",
        "tle_line2": "2 42063  98.5717  55.9787 0001140  93.2953 266.8360 14.30814232457513"
      },
      "geometry": {
        "type": "Point",
        "coordinates": [
          47.32498127441554,
          45.63022006035956
        ]
      }
    },
    {
      "type": "Feature",
      "properties": {
        "norad_id": 42767,
        "name": "CARTOSAT-2E",
        "group": "resource",
        "lat": 67.8847524789587,
        "lon": -119.86851381029048,
        "alt_km": 502.6637601310358,
        "timestamp": "2025-12-09T16:56:36.237640+00:00",
        "meta_object_name": "CARTOSAT-2E",
        "meta_object_id": "2017-036C",
        "meta_epoch": "2025-12-09T11:42:53.864352",
        "meta_mean_motion": 15.19275124,
        "meta_eccentricity": 0.0002289,
        "meta_inclination": 97.4556,
        "meta_ra_of_asc_node": 41.1169,
        "meta_arg_of_pericenter": 252.8457,
        "meta_mean_anomaly": 107.2526,
        "meta_ephemeris_type": 0,
        "meta_classification_type": "U",
        "meta_norad_cat_id": 42767,
        "meta_element_set_no": 999,
        "meta_rev_at_epoch": 46934,
        "meta_bstar": 0.00047434,
        "meta_mean_motion_dot": 9.943e-05,
        "meta_mean_motion_ddot": 0,
        "tle_line1": "1 42767U 17036C   25343.48812343  .00009943  00000+0  47434-3 0  9992",
        "tle_line2": "2 42767  97.4556  41.1169 0002289 252.8457 107.2526 15.19275124469346"
      },
      "geometry": {
        "type": "Point",
        "coordinates": [
          -119.86851381029048,
          67.8847524789587
        ]
      }
    },
    {
      "type": "Feature",
      "properties": {
        "norad_id": 42920,
        "name": "FORMOSAT-5",
        "group": "resource",
        "lat": -8.286580130128556,
        "lon": -123.12504908657405,
        "alt_km": 729.6568833442589,
        "timestamp": "2025-12-09T16:56:36.237651+00:00",
        "meta_object_name": "FORMOSAT-5",
        "meta_object_id": "2017-049A",
        "meta_epoch": "2025-12-09T11:06:45.391104",
        "meta_mean_motion": 14.51002678,
        "meta_eccentricity": 0.0010016,
        "meta_inclination": 98.2455,
        "meta_ra_of_asc_node": 57.847,
        "meta_arg_of_pericenter": 306.6606,
        "meta_mean_anomaly": 53.3667,
        "meta_ephemeris_type": 0,
        "meta_classification_type": "U",
        "meta_norad_cat_id": 42920,
        "meta_element_set_no": 999,
        "meta_rev_at_epoch": 43916,
        "meta_bstar": 0.00013537,
        "meta_mean_motion_dot": 4.92e-06,
        "meta_mean_motion_ddot": 0,
        "tle_line1": "1 42920U 17049A   25343.46302536  .00000492  00000+0  13537-3 0  9990",
        "tle_line2": "2 42920  98.2455  57.8470 0010016 306.6606  53.3667 14.51002678439165"
      },
      "geometry": {
        "type": "Point",
        "coordinates": [
          -123.12504908657405,
          -8.286580130128556
        ]
      }
    },
    {
      "type": "Feature",
      "properties": {
        "norad_id": 42969,
        "name": "SENTINEL-5P",
        "group": "resource",
        "lat": -26.929570813426995,
        "lon": 97.8152112818642,
        "alt_km": 833.0121680494512,
        "timestamp": "2025-12-09T16:56:36.237661+00:00",
        "meta_object_name": "SENTINEL-5P",
        "meta_object_id": "2017-064A",
        "meta_epoch": "2025-12-09T10:53:44.001600",
        "meta_mean_motion": 14.19516274,
        "meta_eccentricity": 9.56e-05,
        "meta_inclination": 98.7781,
        "meta_ra_of_asc_node": 282.0673,
        "meta_arg_of_pericenter": 87.4839,
        "meta_mean_anomaly": 272.6447,
        "meta_ephemeris_type": 0,
        "meta_classification_type": "U",
        "meta_norad_cat_id": 42969,
        "meta_element_set_no": 999,
        "meta_rev_at_epoch": 42264,
        "meta_bstar": 0.00010969,
        "meta_mean_motion_dot": 1.87e-06,
        "meta_mean_motion_ddot": 0,
        "tle_line1": "1 42969U 17064A   25343.45398150  .00000187  00000+0  10969-3 0  9993",
        "tle_line2": "2 42969  98.7781 282.0673 0000956  87.4839 272.6447 14.19516274422649"
      },
      "geometry": {
        "type": "Point",
        "coordinates": [
          97.8152112818642,
          -26.929570813426995
        ]
      }
    },
    {
      "type": "Feature",
      "properties": {
        "norad_id": 42987,
        "name": "SKYSAT-C11",
        "group": "resource",
        "lat": 6.820177705946074,
        "lon": 120.23066745269641,
        "alt_km": 427.0495720199333,
        "timestamp": "2025-12-09T16:56:36.237672+00:00",
        "meta_object_name": "SKYSAT-C11",
        "meta_object_id": "2017-068A",
        "meta_epoch": "2025-12-09T09:09:10.541664",
        "meta_mean_motion": 15.47229769,
        "meta_eccentricity": 9.33e-05,
        "meta_inclination": 97.4143,
        "meta_ra_of_asc_node": 120.7906,
        "meta_arg_of_pericenter": 105.2384,
        "meta_mean_anomaly": 254.8969,
        "meta_ephemeris_type": 0,
        "meta_classification_type": "U",
        "meta_norad_cat_id": 42987,
        "meta_element_set_no": 999,
        "meta_rev_at_epoch": 45379,
        "meta_bstar": 0.00057839,
        "meta_mean_motion_dot": 0.00029408,
        "meta_mean_motion_ddot": 0,
        "tle_line1": "1 42987U 17068A   25343.38137201  .00029408  00000+0  57839-3 0  9991",
        "tle_line2": "2 42987  97.4143 120.7906 0000933 105.2384 254.8969 15.47229769453796"
      },
      "geometry": {
        "type": "Point",
        "coordinates": [
          120.23066745269641,
          6.820177705946074
        ]
      }
    }
  ]
}